{"type": "FeatureCollection", "features": [ {"type": "Feature", "properties": {"norad_id": 45358, "name": "COSMOS 2545 (760)", "group": "glo-ops", "lat": -62.58259432590572, "lon": -108.48859367354729, "alt_km": 19111.267747570855, "timestamp": "2025-12-23T14:49:09.651678+00:00", "meta": {"OBJECT_NAME": "COSMOS 2545 (760)", "OBJECT_ID": "2020-018A", "EPOCH": "2025-12-22T07:31:25.141152", "MEAN_MOTION": 2.13102698, "ECCENTRICITY": 0.00113434, "INCLINATION": 64.464, "RA_OF_ASC_NODE": 318.6341, "ARG_OF_PERICENTER": 250.3607, "MEAN_ANOMALY": 109.513, "EPHEMERIS_TYPE": 0, "CLASSIFICATION_TYPE": "U", "NORAD_CAT_ID": 45358, "ELEMENT_SET_NO": 999, "REV_AT_EPOCH": 4489, "BSTAR": 0, "MEAN_MOTION_DOT": -4.2e-07, "MEAN_MOTION_DDOT": 0}, "tle": {"line1": "1 45358U 20018A   25356.31348543 -.00000042  00000+0  00000+0 0  9993", "line2": "2 45358  64.4640 318.6341 0011343 250.3607 109.5130  2.13102698 44898"}}, "geometry": {"type": "Point", "coordinates": [-108.48859367354729, -62.58259432590572]}}, {"type": "Feature", "properties": {"norad_id": 46805, "name": "COSMOS 2547 (705K)", "group": "glo-ops", "lat": 38.89867438969937, "lon": -4.221618554930074, "alt_km": 19125.97251649294, "timestamp": "2025-12-23T14:49:09.651690+00:00", "meta": {"OBJECT_NAME": "COSMOS 2547 (705K)", "OBJECT_ID": "2020-075A", "EPOCH": "2025-12-22T23:18:06.854688", "MEAN_MOTION": 2.13100221, "ECCENTRICITY": 0.00061066, "INCLINATION": 64.5968, "RA_OF_ASC_NODE": 198.3547, "ARG_OF_PERICENTER": 227.5279, "MEAN_ANOMALY": 132.4843, "EPHEMERIS_TYPE": 0, "CLASSIFICATION_TYPE": "U", "NORAD_CAT_ID": 46805, "ELEMENT_SET_NO": 999, "REV_AT_EPOCH": 4015, "BSTAR": 0, "MEAN_MOTION_DOT": 9.5e-07, "MEAN_MOTION_DDOT": 0}, "tle": {"line1": "1 46805U 20075A   25356.97091267  .00000095  00000+0  00000+0 0  9991", "line2": "2 46805  64.5968 198.3547 0006106 227.5279 132.4843  2.13100221 40154"}}, "geometry": {"type": "Point", "coordinates": [-4.221618554930074, 38.89867438969937]}}, {"type": "Feature", "properties": {"norad_id": 52984, "name": "COSMOS 2557 (706K)", "group": "glo-ops", "lat": 8.351114894341244, "lon": -35.31496633871663, "alt_km": 19129.766425480415, "timestamp": "2025-12-23T14:49:09.651703+00:00", "meta": {"OBJECT_NAME": "COSMOS 2557 (706K)", "OBJECT_ID": "2022-075A", "EPOCH": "2025-12-23T03:16:01.928352", "MEAN_MOTION": 2.1310205, "ECCENTRICITY": 0.00135388, "INCLINATION": 64.4039, "RA_OF_ASC_NODE": 320.6862, "ARG_OF_PERICENTER": 278.4196, "MEAN_ANOMALY": 81.425, "EPHEMERIS_TYPE": 0, "CLASSIFICATION_TYPE": "U", "NORAD_CAT_ID": 52984, "ELEMENT_SET_NO": 999, "REV_AT_EPOCH": 2696, "BSTAR": 0, "MEAN_MOTION_DOT": -3.9e-07, "MEAN_MOTION_DDOT": 0}, "tle": {"line1": "1 52984U 22075A   25357.13613343 -.00000039  00000+0  00000+0 0  9991", "line2": "2 52984  64.4039 320.6862 0013538 278.4196  81.4250  2.13102050 26967"}}, "geometry": {"type": "Point", "coordinates": [-35.31496633871663, 8.351114894341244]}}, {"type": "Feature", "properties": {"norad_id": 54031, "name": "COSMOS 2559 (707K)", "group": "glo-ops", "lat": 28.629905860237837, "lon": 125.56384487127978, "alt_km": 19105.4973878706, "timestamp": "2025-12-23T14:49:09.651716+00:00", "meta": {"OBJECT_NAME": "COSMOS 2559 (707K)", "OBJECT_ID": "2022-130A", "EPOCH": "2025-12-22T22:55:41.344032", "MEAN_MOTION": 2.131013, "ECCENTRICITY": 0.00115317, "INCLINATION": 64.3764, "RA_OF_ASC_NODE": 320.7818, "ARG_OF_PERICENTER": 191.7827, "MEAN_ANOMALY": 168.1884, "EPHEMERIS_TYPE": 0, "CLASSIFICATION_TYPE": "U", "NORAD_CAT_ID": 54031, "ELEMENT_SET_NO": 999, "REV_AT_EPOCH": 2493, "BSTAR": 0, "MEAN_MOTION_DOT": -4e-07, "MEAN_MOTION_DDOT": 0}, "tle": {"line1": "1 54031U 22130A   25356.95533963 -.00000040  00000+0  00000+0 0  9998", "line2": "2 54031  64.3764 320.7818 0011531 191.7827 168.1884  2.13101300 24935"}}, "geometry": {"type": "Point", "coordinates": [125.56384487127978, 28.629905860237837]}}, {"type": "Feature", "properties": {"norad_id": 54377, "name": "COSMOS 2564 (761)", "group": "glo-ops", "lat": -64.60758282207442, "lon": 102.97958072711198, "alt_km": 19126.869191697842, "timestamp": "2025-12-23T14:49:09.651727+00:00", "meta": {"OBJECT_NAME": "COSMOS 2564 (761)", "OBJECT_ID": "2022-161A", "EPOCH": "2025-12-22T19:11:15.319968", "MEAN_MOTION": 2.13102038, "ECCENTRICITY": 0.00085475, "INCLINATION": 64.7388, "RA_OF_ASC_NODE": 198.5646, "ARG_OF_PERICENTER": 203.7096, "MEAN_ANOMALY": 156.316, "EPHEMERIS_TYPE": 0, "CLASSIFICATION_TYPE": "U", "NORAD_CAT_ID": 54377, "ELEMENT_SET_NO": 999, "REV_AT_EPOCH": 2387, "BSTAR": 0, "MEAN_MOTION_DOT": 9.5e-07, "MEAN_MOTION_DDOT": 0}, "tle": {"line1": "1 54377U 22161A   25356.79948287  .00000095  00000+0  00000+0 0  9995", "line2": "2 54377  64.7388 198.5646 0008547 203.7096 156.3160  2.13102038 23876"}}, "geometry": {"type": "Point", "coordinates": [102.97958072711198, -64.60758282207442]}}, {"type": "Feature", "properties": {"norad_id": 57517, "name": "COSMOS 2569 (703K)", "group": "glo-ops", "lat": -62.27650013037694, "lon": -39.99030815298364, "alt_km": 19112.161945576034, "timestamp": "2025-12-23T14:49:09.651740+00:00", "meta": {"OBJECT_NAME": "COSMOS 2569 (703K)", "OBJECT_ID": "2023-114A", "EPOCH": "2025-12-23T06:46:12.296064", "MEAN_MOTION": 2.13104025, "ECCENTRICITY": 0.00108924, "INCLINATION": 65.1995, "RA_OF_ASC_NODE": 78.5573, "ARG_OF_PERICENTER": 287.0521, "MEAN_ANOMALY": 72.876, "EPHEMERIS_TYPE": 0, "CLASSIFICATION_TYPE": "U", "NORAD_CAT_ID": 57517, "ELEMENT_SET_NO": 999, "REV_AT_EPOCH": 1851, "BSTAR": 0, "MEAN_MOTION_DOT": 0, "MEAN_MOTION_DDOT": 0}, "tle": {"line1": "1 57517U 23114A   25357.28208676  .00000000  00000+0  00000+0 0  9995", "line2": "2 57517  65.1995  78.5573 0010892 287.0521  72.8760  2.13104025 18515"}}, "geometry": {"type": "Point", "coordinates": [-39.99030815298364, -62.27650013037694]}}, {"type": "Feature", "properties": {"norad_id": 63130, "name": "COSMOS 2584 (704K)", "group": "glo-ops", "lat": -14.210807298810662, "lon": 72.0083866334512, "alt_km": 19143.235422328213, "timestamp": "2025-12-23T14:49:09.651752+00:00", "meta": {"OBJECT_NAME": "COSMOS 2584 (704K)", "OBJECT_ID": "2025-042A", "EPOCH": "2025-12-22T16:47:13.376832", "MEAN_MOTION": 2.13103045, "ECCENTRICITY": 0.00077582, "INCLINATION": 64.9812, "RA_OF_ASC_NODE": 78.8068, "ARG_OF_PERICENTER": 220.2667, "MEAN_ANOMALY": 139.7207, "EPHEMERIS_TYPE": 0, "CLASSIFICATION_TYPE": "U", "NORAD_CAT_ID": 63130, "ELEMENT_SET_NO": 999, "REV_AT_EPOCH": 628, "BSTAR": 0, "MEAN_MOTION_DOT": -2e-08, "MEAN_MOTION_DDOT": 0}, "tle": {"line1": "1 63130U 25042A   25356.69946038 -.00000002  00000+0  00000+0 0  9993", "line2": "2 63130  64.9812  78.8068 0007758 220.2667 139.7207  2.13103045  6288"}}, "geometry": {"type": "Point", "coordinates": [72.0083866334512, -14.210807298810662]}}, {"type": "Feature", "properties": {"norad_id": 65590, "name": "COSMOS 2596 (708K)", "group": "glo-ops", "lat": 61.899225761512874, "lon": 78.98901091082293, "alt_km": 19156.029789749657, "timestamp": "2025-12-23T14:49:09.651764+00:00", "meta": {"OBJECT_NAME": "COSMOS 2596 (708K)", "OBJECT_ID": "2025-206B", "EPOCH": "2025-12-23T03:22:08.901120", "MEAN_MOTION": 2.13100363, "ECCENTRICITY": 0.00140926, "INCLINATION": 64.7387, "RA_OF_ASC_NODE": 321.1139, "ARG_OF_PERICENTER": 307.3847, "MEAN_ANOMALY": 149.2418, "EPHEMERIS_TYPE": 0, "CLASSIFICATION_TYPE": "U", "NORAD_CAT_ID": 65590, "ELEMENT_SET_NO": 999, "REV_AT_EPOCH": 216, "BSTAR": 0, "MEAN_MOTION_DOT": -3.8e-07, "MEAN_MOTION_DDOT": 0}, "tle": {"line1": "1 65590U 25206B   25357.14038080 -.00000038  00000+0  00000+0 0  9996", "line2": "2 65590  64.7387 321.1139 0014092 307.3847 149.2418  2.13100363  2167"}}, "geometry": {"type": "Point", "coordinates": [78.98901091082293, 61.899225761512874]}}]}